[{"OBJECT_NAME":"ASRTU-1 (AO-123)","OBJECT_ID":"2024-199AY","EPOCH":"2026-03-09T22:36:42.151392","MEAN_MOTION":15.34070057,"ECCENTRICITY":0.0012786,"INCLINATION":97.3152,"RA_OF_ASC_NODE":298.5256,"ARG_OF_PERICENTER":309.3392,"MEAN_ANOMALY":50.6717,"EPHEMERIS_TYPE":0,"CLASSIFICATION_TYPE":"U","NORAD_CAT_ID":61781,"ELEMENT_SET_NO":999,"REV_AT_EPOCH":11870,"BSTAR":0.00032267684,"MEAN_MOTION_DOT":0.00010589,"MEAN_MOTION_DDOT":0},{"OBJECT_NAME":"STARLINK-34886","OBJECT_ID":"2025-212H","EPOCH":"2026-03-09T22:28:26.706144","MEAN_MOTION":15.30213951,"ECCENTRICITY":0.0001089,"INCLINATION":53.1598,"RA_OF_ASC_NODE":344.3659,"ARG_OF_PERICENTER":109.6733,"MEAN_ANOMALY":250.4385,"EPHEMERIS_TYPE":0,"CLASSIFICATION_TYPE":"U","NORAD_CAT_ID":65683,"ELEMENT_SET_NO":999,"REV_AT_EPOCH":2723,"BSTAR":0.0010742301,"MEAN_MOTION_DOT":0.00031606,"MEAN_MOTION_DDOT":0}]
